{"fetched_at":"2026-03-29T16:36:15Z","count":15609,"tles":[{"name":"STARLINK-5171","line1":"1 54077U 22136AC  26087.80757880  .00000231  00000+0  32623-4 0  9998","line2":"2 54077  53.2172 233.9322 0001157  90.7005 269.4120 15.08840289190070","category":"Starlink"}]}